OBJECT_NAME,OBJECT_ID,EPOCH,MEAN_MOTION,ECCENTRICITY,INCLINATION,RA_OF_ASC_NODE,ARG_OF_PERICENTER,MEAN_ANOMALY,EPHEMERIS_TYPE,CLASSIFICATION_TYPE,NORAD_CAT_ID,ELEMENT_SET_NO,REV_AT_EPOCH,BSTAR,MEAN_MOTION_DOT,MEAN_MOTION_DDOT
PACE-1,2021-059AG,2026-07-10T23:59:24.733248,15.84551910,.0003235,97.6745,32.9101,192.6042,167.5147,0,U,48909,999,28156,.3633E-3,.83467E-3,0
YAM-3,2021-059AN,2026-07-11T03:58:44.700960,15.49086823,.0003777,97.6995,20.6976,263.5388,96.5432,0,U,48915,999,28070,.14719E-3,.7887E-4,0
FARADAY_PHOENIX,2021-059AX,2026-07-08T11:24:02.258496,15.85017527,.00054025,97.6781,29.9740,217.7060,142.3832,0,U,48924,999,28102,.60440555E-3,.143131E-2,0
DEMO8 (TENZING),2021-059CA,2026-07-09T12:00:58.829760,15.55866744,.00053984,97.7022,25.6323,256.5290,103.5362,0,U,48951,999,28077,.22735381E-3,.15641E-3,0
FENGYUN 3E,2021-062A,2026-07-11T03:51:01.717056,14.19905359,.0002459,98.7502,195.3011,46.4366,313.7014,0,U,49008,999,25998,-.48345E-4,-.147E-5,0
ISS (NAUKA),2021-066A,2026-07-11T04:27:35.337024,15.48977198,.0006688,51.6302,181.3206,281.9973,78.0266,0,U,49044,999,61052,.10636E-3,.541E-4,0
STARLINK-3100,2021-082Q,2026-07-10T09:45:01.473984,14.98331447,.00031519,70.0001,345.0339,268.6130,91.4668,0,U,49144,999,26436,-.16355403E-4,-.288E-5,0
CUTE,2021-088D,2026-07-10T21:43:45.577632,16.09103257,.0004791,97.3998,293.7023,320.2644,39.8288,0,U,49263,999,26634,.12334E-2,.106962E-1,.68229E-3
2021-091B,2021-091B,2026-07-11T04:13:54.606144,15.18670644,.0012373,97.4482,19.3877,323.6011,36.4380,0,U,49316,999,26262,.10055E-3,.2019E-4,0
SDGSAT 1,2021-100A,2026-07-11T04:56:58.761888,15.19224595,.000934,97.2623,238.2373,176.6970,183.4328,0,U,49387,999,25956,.74535E-4,.1506E-4,0
TEIKYOSAT-4 (OORURI),2021-102B,2026-07-11T01:12:22.083840,15.09589154,.001134,97.3664,220.6059,203.4215,156.6499,0,U,49396,999,25632,.59148E-4,.89E-5,0
Z-SAT,2021-102E,2026-07-11T04:28:52.089600,15.18443719,.0017285,97.3320,226.7818,157.9201,202.2781,0,U,49399,999,25708,.1632E-3,.3306E-4,0
HIBARI,2021-102F,2026-07-11T02:35:50.285760,15.32221551,.0013276,97.3229,237.7437,113.8421,246.4214,0,U,49400,999,25785,.22478E-3,.6934E-4,0
KOSEN-1,2021-102H,2026-07-11T01:26:35.468736,15.27175528,.0015277,97.3173,233.7563,120.4630,239.8120,0,U,49402,999,25766,.18749E-3,.4938E-4,0
GLOBAL-14,2021-106A,2026-07-10T07:55:20.008416,15.51660276,.00168882,42.0022,153.4283,191.3088,168.7379,0,U,49469,999,26172,.31886774E-3,.19295E-3,0
GAOFEN-3 02,2021-109A,2026-07-11T04:37:03.780768,14.42220041,.0001356,98.4097,199.9480,290.8205,69.2839,0,U,49495,999,24377,.35036E-4,.72E-6,0
GLOBAL-12,2021-115BA,2026-07-10T14:34:24.220128,15.55134134,.0002676,53.1957,291.8070,67.4277,292.7018,0,U,49772,999,25954,.40417E-3,.27333E-3,0
GLOBAL-13,2021-115BB,2026-07-10T18:32:35.130912,15.46995782,.0001107,53.1978,302.3911,154.7411,205.3652,0,U,49773,999,25941,.29226E-3,.14585E-3,0
GLOBAL-17,2021-120A,2026-07-11T04:57:32.933088,15.53575886,.0013463,41.9946,266.0304,60.1034,300.1147,0,U,49949,999,25863,.28972E-3,.18732E-3,0
GLOBAL-16,2021-120B,2026-07-10T16:10:27.818112,15.51339852,.0011813,41.9952,273.3944,44.6913,315.4881,0,U,49950,999,25849,.31687E-3,.18892E-3,0
XW-3 (CAS-9),2021-131B,2026-07-11T05:05:42.648288,14.41379533,.0004813,98.4982,284.4724,41.1030,319.0521,0,U,50466,999,23857,.73408E-4,.194E-5,0
ION SCV-004,2022-002K,2026-07-11T02:20:23.199936,15.30682590,.0005544,97.2826,249.3081,266.0904,93.9704,0,U,50993,999,24895,.10916E-3,.3163E-4,0
ETV-A1,2022-002CE,2026-07-11T04:05:59.509824,15.41178810,.0003611,97.2871,258.4129,245.0691,115.0181,0,U,51060,999,24953,.17862E-3,.7325E-4,0
BRO-5,2022-002CF,2026-07-11T04:01:51.001824,15.48720854,.0004938,97.2993,266.0696,218.9294,141.1602,0,U,51061,999,24996,.39392E-3,.21051E-3,0
LUDI TANCE 1-01A (L-SAR 01A),2022-007A,2026-07-11T04:20:51.385920,14.88416455,.0001596,97.8110,199.2603,91.5440,268.5960,0,U,51284,999,24204,.41609E-4,.331E-5,0
LUDI TANCE 1-01B (L-SAR 01B),2022-018A,2026-07-11T05:09:14.874336,14.88411023,.0001638,97.8108,199.2914,91.6044,268.5361,0,U,51822,999,23728,.40652E-4,.322E-5,0
2022-023F,2022-023F,2026-07-11T04:34:15.191040,15.17926785,.0132754,63.4439,191.8829,341.6349,17.9993,0,U,51951,999,24135,.20271E-3,.4946E-4,0
