PACE-1                  
1 48909U 21059AG  26191.99959182  .00083467  00000+0  36330-3 0  9993
2 48909  97.6745  32.9101 0003235 192.6042 167.5147 15.84551910281565
YAM-3                   
1 48915U 21059AN  26192.16579515  .00007887  00000+0  14719-3 0  9997
2 48915  97.6995  20.6976 0003777 263.5388  96.5432 15.49086823280705
FARADAY_PHOENIX         
1 48924U 21059AX  26189.47502614  .00143131  00000+0  60441-3 0  9999
2 48924  97.6781  29.9740 0005402 217.7060 142.3832 15.85017527281029
DEMO8 (TENZING)         
1 48951U 21059CA  26190.50068090  .00015641  00000+0  22735-3 0  9998
2 48951  97.7022  25.6323 0005398 256.5290 103.5362 15.55866744280776
FENGYUN 3E              
1 49008U 21062A   26192.16043654 -.00000147  00000+0 -48345-4 0  9992
2 49008  98.7502 195.3011 0002459  46.4366 313.7014 14.19905359259981
ISS (NAUKA)             
1 49044U 21066A   26192.18582566  .00005410  00000+0  10636-3 0  9995
2 49044  51.6302 181.3206 0006688 281.9973  78.0266 15.48977198610520
STARLINK-3100           
1 49144U 21082Q   26191.40626706 -.00000288  00000+0 -16355-4 0  9998
2 49144  70.0001 345.0339 0003151 268.6130  91.4668 14.98331447264364
CUTE                    
1 49263U 21088D   26191.90538863  .01069620  68229-3  12334-2 0  9993
2 49263  97.3998 293.7023 0004791 320.2644  39.8288 16.09103257266342
2021-091B               
1 49316U 21091B   26192.17632646  .00002019  00000+0  10055-3 0  9996
2 49316  97.4482  19.3877 0012373 323.6011  36.4380 15.18670644262620
SDGSAT 1                
1 49387U 21100A   26192.20623567  .00001506  00000+0  74535-4 0  9995
2 49387  97.2623 238.2373 0009340 176.6970 183.4328 15.19224595259561
TEIKYOSAT-4 (OORURI)    
1 49396U 21102B   26192.05025560  .00000890  00000+0  59148-4 0  9997
2 49396  97.3664 220.6059 0011340 203.4215 156.6499 15.09589154256323
Z-SAT                   
1 49399U 21102E   26192.18671400  .00003306  00000+0  16320-3 0  9993
2 49399  97.3320 226.7818 0017285 157.9201 202.2781 15.18443719257089
HIBARI                  
1 49400U 21102F   26192.10822090  .00006934  00000+0  22478-3 0  9992
2 49400  97.3229 237.7437 0013276 113.8421 246.4214 15.32221551257850
KOSEN-1                 
1 49402U 21102H   26192.06013274  .00004938  00000+0  18749-3 0  9993
2 49402  97.3173 233.7563 0015277 120.4630 239.8120 15.27175528257662
GLOBAL-14               
1 49469U 21106A   26191.33009269  .00019295  00000+0  31887-3 0  9998
2 49469  42.0022 153.4283 0016888 191.3088 168.7379 15.51660276261729
GAOFEN-3 02             
1 49495U 21109A   26192.19240487  .00000072  00000+0  35036-4 0  9998
2 49495  98.4097 199.9480 0001356 290.8205  69.2839 14.42220041243771
GLOBAL-12               
1 49772U 21115BA  26191.60722477  .00027333  00000+0  40417-3 0  9999
2 49772  53.1957 291.8070 0002676  67.4277 292.7018 15.55134134259548
GLOBAL-13               
1 49773U 21115BB  26191.77262883  .00014585  00000+0  29226-3 0  9998
2 49773  53.1978 302.3911 0001107 154.7411 205.3652 15.46995782259416
GLOBAL-17               
1 49949U 21120A   26192.20663117  .00018732  00000+0  28972-3 0  9998
2 49949  41.9946 266.0304 0013463  60.1034 300.1147 15.53575886258635
GLOBAL-16               
1 49950U 21120B   26191.67393308  .00018892  00000+0  31687-3 0  9996
2 49950  41.9952 273.3944 0011813  44.6913 315.4881 15.51339852258492
XW-3 (CAS-9)            
1 50466U 21131B   26192.21229917  .00000194  00000+0  73408-4 0  9991
2 50466  98.4982 284.4724 0004813  41.1030 319.0521 14.41379533238575
ION SCV-004             
1 50993U 22002K   26192.09749074  .00003163  00000+0  10916-3 0  9994
2 50993  97.2826 249.3081 0005544 266.0904  93.9704 15.30682590248953
ETV-A1                  
1 51060U 22002CE  26192.17082766  .00007325  00000+0  17862-3 0  9998
2 51060  97.2871 258.4129 0003611 245.0691 115.0181 15.41178810249533
BRO-5                   
1 51061U 22002CF  26192.16795141  .00021051  00000+0  39392-3 0  9990
2 51061  97.2993 266.0696 0004938 218.9294 141.1602 15.48720854249967
LUDI TANCE 1-01A (L-SA*)
1 51284U 22007A   26192.18115030  .00000331  00000+0  41609-4 0  9990
2 51284  97.8110 199.2603 0001596  91.5440 268.5960 14.88416455242046
LUDI TANCE 1-01B (L-SA*)
1 51822U 22018A   26192.21475549  .00000322  00000+0  40652-4 0  9995
2 51822  97.8108 199.2914 0001638  91.6044 268.5361 14.88411023237285
2022-023F               
1 51951U 22023F   26192.19045360  .00004946  00000+0  20271-3 0  9995
2 51951  63.4439 191.8829 0132754 341.6349  17.9993 15.17926785241356
